[{"OBJECT_NAME":"STARLINK-31233","OBJECT_ID":"2024-017A","EPOCH":"2024-06-12T15:20:15.683424","MEAN_MOTION":15.28023861,"ECCENTRICITY":0.0001363,"INCLINATION":53.1599,"RA_OF_ASC_NODE":283.5398,"ARG_OF_PERICENTER":76.3402,"MEAN_ANOMALY":283.775,"EPHEMERIS_TYPE":0,"CLASSIFICATION_TYPE":"U","NORAD_CAT_ID":58826,"ELEMENT_SET_NO":999,"REV_AT_EPOCH":2281,"BSTAR":0.00010327,"MEAN_MOTION_DOT":2.511e-5,"MEAN_MOTION_DDOT":0},{"OBJECT_NAME":"STARLINK-31271","OBJECT_ID":"2024-017B","EPOCH":"2024-06-12T14:13:31.189440","MEAN_MOTION":15.28012897,"ECCENTRICITY":0.000126,"INCLINATION":53.1592,"RA_OF_ASC_NODE":283.9616,"ARG_OF_PERICENTER":88.3968,"MEAN_ANOMALY":271.7176,"EPHEMERIS_TYPE":0,"CLASSIFICATION_TYPE":"U","NORAD_CAT_ID":58827,"ELEMENT_SET_NO":999,"REV_AT_EPOCH":2268,"BSTAR":2.0409e-5,"MEAN_MOTION_DOT":2.14e-6,"MEAN_MOTION_DDOT":0},{"OBJECT_NAME":"STARLINK-31222","OBJECT_ID":"2024-017C","EPOCH":"2024-06-12T15:47:12.890976","MEAN_MOTION":15.28019489,"ECCENTRICITY":0.0001268,"INCLINATION":53.1596,"RA_OF_ASC_NODE":283.6524,"ARG_OF_PERICENTER":98.1272,"MEAN_ANOMALY":261.9872,"EPHEMERIS_TYPE":0,"CLASSIFICATION_TYPE":"U","NORAD_CAT_ID":58828,"ELEMENT_SET_NO":999,"REV_AT_EPOCH":2269,"BSTAR":8.292e-5,"MEAN_MOTION_DOT":1.946e-5,"MEAN_MOTION_DDOT":0},{"OBJECT_NAME":"STARLINK-31258","OBJECT_ID":"2024-017D","EPOCH":"2024-06-12T15:40:56.745120","MEAN_MOTION":15.28002099,"ECCENTRICITY":0.0001244,"INCLINATION":53.1616,"RA_OF_ASC_NODE":283.6245,"ARG_OF_PERICENTER":103.3608,"MEAN_ANOMALY":256.753,"EPHEMERIS_TYPE":0,"CLASSIFICATION_TYPE":"U","NORAD_CAT_ID":58829,"ELEMENT_SET_NO":999,"REV_AT_EPOCH":2269,"BSTAR":1.0857e-5,"MEAN_MOTION_DOT":-5.0e-7,"MEAN_MOTION_DDOT":0},{"OBJECT_NAME":"STARLINK-31253","OBJECT_ID":"2024-017E","EPOCH":"2024-06-12T15:40:28.390368","MEAN_MOTION":15.27996348,"ECCENTRICITY":0.0001434,"INCLINATION":53.1605,"RA_OF_ASC_NODE":283.6237,"ARG_OF_PERICENTER":80.2156,"MEAN_ANOMALY":279.9006,"EPHEMERIS_TYPE":0,"CLASSIFICATION_TYPE":"U","NORAD_CAT_ID":58830,"ELEMENT_SET_NO":999,"REV_AT_EPOCH":2271,"BSTAR":-0.00012864,"MEAN_MOTION_DOT":-3.909e-5,"MEAN_MOTION_DDOT":0},{"OBJECT_NAME":"STARLINK-31232","OBJECT_ID":"2024-017F","EPOCH":"2024-06-12T15:34:13.013472","MEAN_MOTION":15.28021872,"ECCENTRICITY":0.0001531,"INCLINATION":53.1608,"RA_OF_ASC_NODE":283.5954,"ARG_OF_PERICENTER":87.2155,"MEAN_ANOMALY":272.902,"EPHEMERIS_TYPE":0,"CLASSIFICATION_TYPE":"U","NORAD_CAT_ID":58831,"ELEMENT_SET_NO":999,"REV_AT_EPOCH":2269,"BSTAR":3.8832e-5,"MEAN_MOTION_DOT":7.25e-6,"MEAN_MOTION_DDOT":0},{"OBJECT_NAME":"STARLINK-31263","OBJECT_ID":"2024-017G","EPOCH":"2024-06-12T15:33:46.421280","MEAN_MOTION":15.27962343,"ECCENTRICITY":0.0001072,"INCLINATION":53.1601,"RA_OF_ASC_NODE":283.5937,"ARG_OF_PERICENTER":99.466,"MEAN_ANOMALY":260.6461,"EPHEMERIS_TYPE":0,"CLASSIFICATION_TYPE":"U","NORAD_CAT_ID":58832,"ELEMENT_SET_NO":999,"REV_AT_EPOCH":2280,"BSTAR":-0.00022465,"MEAN_MOTION_DOT":-6.556e-5,"MEAN_MOTION_DDOT":0},{"OBJECT_NAME":"STARLINK-31175","OBJECT_ID":"2024-017H","EPOCH":"2024-06-12T14:26:48.651072","MEAN_MOTION":15.39611454,"ECCENTRICITY":0.0001197,"INCLINATION":53.1635,"RA_OF_ASC_NODE":281.1822,"ARG_OF_PERICENTER":317.7556,"MEAN_ANOMALY":42.3356,"EPHEMERIS_TYPE":0,"CLASSIFICATION_TYPE":"U","NORAD_CAT_ID":58833,"ELEMENT_SET_NO":999,"REV_AT_EPOCH":2274,"BSTAR":1.7128e-5,"MEAN_MOTION_DOT":2.86e-6,"MEAN_MOTION_DDOT":0},{"OBJECT_NAME":"STARLINK-31171","OBJECT_ID":"2024-017J","EPOCH":"2024-06-12T15:26:59.969760","MEAN_MOTION":15.28019012,"ECCENTRICITY":0.0001168,"INCLINATION":53.1578,"RA_OF_ASC_NODE":283.5675,"ARG_OF_PERICENTER":110.2121,"MEAN_ANOMALY":249.9005,"EPHEMERIS_TYPE":0,"CLASSIFICATION_TYPE":"U","NORAD_CAT_ID":58834,"ELEMENT_SET_NO":999,"REV_AT_EPOCH":2269,"BSTAR":0.00016485,"MEAN_MOTION_DOT":4.218e-5,"MEAN_MOTION_DDOT":0},{"OBJECT_NAME":"STARLINK-31246","OBJECT_ID":"2024-017K","EPOCH":"2024-06-12T15:20:44.914272","MEAN_MOTION":15.28015685,"ECCENTRICITY":0.0001119,"INCLINATION":53.159,"RA_OF_ASC_NODE":283.5338,"ARG_OF_PERICENTER":104.4571,"MEAN_ANOMALY":255.6553,"EPHEMERIS_TYPE":0,"CLASSIFICATION_TYPE":"U","NORAD_CAT_ID":58835,"ELEMENT_SET_NO":999,"REV_AT_EPOCH":2269,"BSTAR":-7.2243e-5,"MEAN_MOTION_DOT":-2.351e-5,"MEAN_MOTION_DDOT":0},{"OBJECT_NAME":"STARLINK-31251","OBJECT_ID":"2024-017L","EPOCH":"2024-06-12T13:39:52.145856","MEAN_MOTION":15.27987345,"ECCENTRICITY":0.0001595,"INCLINATION":53.1613,"RA_OF_ASC_NODE":283.8092,"ARG_OF_PERICENTER":87.0335,"MEAN_ANOMALY":273.0847,"EPHEMERIS_TYPE":0,"CLASSIFICATION_TYPE":"U","NORAD_CAT_ID":58836,"ELEMENT_SET_NO":999,"REV_AT_EPOCH":2279,"BSTAR":1.5715e-5,"MEAN_MOTION_DOT":8.4e-7,"MEAN_MOTION_DDOT":0},{"OBJECT_NAME":"STARLINK-31172","OBJECT_ID":"2024-017M","EPOCH":"2024-06-12T14:11:50.865216","MEAN_MOTION":15.28007948,"ECCENTRICITY":0.0001321,"INCLINATION":53.1601,"RA_OF_ASC_NODE":280.3904,"ARG_OF_PERICENTER":85.7742,"MEAN_ANOMALY":274.3409,"EPHEMERIS_TYPE":0,"CLASSIFICATION_TYPE":"U","NORAD_CAT_ID":58837,"ELEMENT_SET_NO":999,"REV_AT_EPOCH":2273,"BSTAR":-0.00011669,"MEAN_MOTION_DOT":-3.58e-5,"MEAN_MOTION_DDOT":0},{"OBJECT_NAME":"STARLINK-31249","OBJECT_ID":"2024-017N","EPOCH":"2024-06-12T13:39:21.650976","MEAN_MOTION":15.28001859,"ECCENTRICITY":0.0001656,"INCLINATION":53.162,"RA_OF_ASC_NODE":283.8074,"ARG_OF_PERICENTER":86.8413,"MEAN_ANOMALY":273.2777,"EPHEMERIS_TYPE":0,"CLASSIFICATION_TYPE":"U","NORAD_CAT_ID":58838,"ELEMENT_SET_NO":999,"REV_AT_EPOCH":2268,"BSTAR":-0.00014,"MEAN_MOTION_DOT":-4.224e-5,"MEAN_MOTION_DDOT":0},{"OBJECT_NAME":"STARLINK-31250","OBJECT_ID":"2024-017P","EPOCH":"2024-06-12T15:07:16.182624","MEAN_MOTION":15.28017506,"ECCENTRICITY":0.0001295,"INCLINATION":53.1584,"RA_OF_ASC_NODE":283.4776,"ARG_OF_PERICENTER":100.4272,"MEAN_ANOMALY":259.6874,"EPHEMERIS_TYPE":0,"CLASSIFICATION_TYPE":"U","NORAD_CAT_ID":58839,"ELEMENT_SET_NO":999,"REV_AT_EPOCH":2264,"BSTAR":-2.0417e-5,"MEAN_MOTION_DOT":-9.16e-6,"MEAN_MOTION_DDOT":0},{"OBJECT_NAME":"STARLINK-31248","OBJECT_ID":"2024-017Q","EPOCH":"2024-06-12T13:26:19.881312","MEAN_MOTION":15.28027928,"ECCENTRICITY":0.0001413,"INCLINATION":53.1586,"RA_OF_ASC_NODE":283.7534,"ARG_OF_PERICENTER":103.6983,"MEAN_ANOMALY":256.4174,"EPHEMERIS_TYPE":0,"CLASSIFICATION_TYPE":"U","NORAD_CAT_ID":58840,"ELEMENT_SET_NO":999,"REV_AT_EPOCH":2279,"BSTAR":0.00017539,"MEAN_MOTION_DOT":4.511e-5,"MEAN_MOTION_DDOT":0},{"OBJECT_NAME":"STARLINK-31236","OBJECT_ID":"2024-017R","EPOCH":"2024-06-12T15:06:47.337120","MEAN_MOTION":15.28003698,"ECCENTRICITY":0.0001559,"INCLINATION":53.1585,"RA_OF_ASC_NODE":283.4767,"ARG_OF_PERICENTER":96.2846,"MEAN_ANOMALY":263.8331,"EPHEMERIS_TYPE":0,"CLASSIFICATION_TYPE":"U","NORAD_CAT_ID":58841,"ELEMENT_SET_NO":999,"REV_AT_EPOCH":2269,"BSTAR":-4.6048e-5,"MEAN_MOTION_DOT":-1.625e-5,"MEAN_MOTION_DDOT":0}]
