STARLINK-31233          
1 58826U 24017A   24164.63907041  .00002511  00000+0  10327-3 0  9994
2 58826  53.1599 283.5398 0001363  76.3402 283.7750 15.28023861 22817
STARLINK-31271          
1 58827U 24017B   24164.59272210  .00000214  00000+0  20409-4 0  9994
2 58827  53.1592 283.9616 0001260  88.3968 271.7176 15.28012897 22685
STARLINK-31222          
1 58828U 24017C   24164.65778809  .00001946  00000+0  82920-4 0  9996
2 58828  53.1596 283.6524 0001268  98.1272 261.9872 15.28019489 22699
STARLINK-31258          
1 58829U 24017D   24164.65343455 -.00000050  00000+0  10857-4 0  9998
2 58829  53.1616 283.6245 0001244 103.3608 256.7530 15.28002099 22691
STARLINK-31253          
1 58830U 24017E   24164.65310637 -.00003909  00000+0 -12864-3 0  9992
2 58830  53.1605 283.6237 0001434  80.2156 279.9006 15.27996348 22710
STARLINK-31232          
1 58831U 24017F   24164.64876173  .00000725  00000+0  38832-4 0  9999
2 58831  53.1608 283.5954 0001531  87.2155 272.9020 15.28021872 22691
STARLINK-31263          
1 58832U 24017G   24164.64845395 -.00006556  00000+0 -22465-3 0  9996
2 58832  53.1601 283.5937 0001072  99.4660 260.6461 15.27962343 22804
STARLINK-31175          
1 58833U 24017H   24164.60195198  .00000286  00000+0  17128-4 0  9995
2 58833  53.1635 281.1822 0001197 317.7556  42.3356 15.39611454 22745
STARLINK-31171          
1 58834U 24017J   24164.64374965  .00004218  00000+0  16485-3 0  9994
2 58834  53.1578 283.5675 0001168 110.2121 249.9005 15.28019012 22696
STARLINK-31246          
1 58835U 24017K   24164.63940873 -.00002351  00000+0 -72243-4 0  9994
2 58835  53.1590 283.5338 0001119 104.4571 255.6553 15.28015685 22691
STARLINK-31251          
1 58836U 24017L   24164.56935354  .00000084  00000+0  15715-4 0  9995
2 58836  53.1613 283.8092 0001595  87.0335 273.0847 15.27987345 22791
STARLINK-31172          
1 58837U 24017M   24164.59156094 -.00003580  00000+0 -11669-3 0  9994
2 58837  53.1601 280.3904 0001321  85.7742 274.3409 15.28007948 22732
STARLINK-31249          
1 58838U 24017N   24164.56900059 -.00004224  00000+0 -14000-3 0  9998
2 58838  53.1620 283.8074 0001656  86.8413 273.2777 15.28001859 22683
STARLINK-31250          
1 58839U 24017P   24164.63004841 -.00000916  00000+0 -20417-4 0  9995
2 58839  53.1584 283.4776 0001295 100.4272 259.6874 15.28017506 22641
STARLINK-31248          
1 58840U 24017Q   24164.55995233  .00004511  00000+0  17539-3 0  9995
2 58840  53.1586 283.7534 0001413 103.6983 256.4174 15.28027928 22799
STARLINK-31236          
1 58841U 24017R   24164.62971455 -.00001625  00000+0 -46048-4 0  9997
2 58841  53.1585 283.4767 0001559  96.2846 263.8331 15.28003698 22694
